METAR WAHH 130600Z 18011KT 9999 SCT018 30/23 Q1010 NOSIG=
METAR WAHH 130000Z 06003KT 4000 HZ SCT018 24/23 Q1012 NOSIG=
METAR WAHH 122300Z 05002KT 2000 BR SCT018 24/23 Q1012 NOSIG=
METAR WAHH 121200Z 00000KT 5000 -RA BKN016 25/24 Q1011 NOSIG=
METAR WAHH 120600Z 21009KT 9999 SCT017 30/23 Q1009 NOSIG=
METAR WAHH 120500Z 22016KT 9000 SCT017 31/19 Q1013 NOSIG=
METAR WAHH 120300Z 06005KT 8000 SCT017 26/23 Q1012 NOSIG=
METAR WAHH 120100Z 36002KT 7000 SCT017 25/23 Q1012 NOSIG=
