METAR WAHH 021100Z 27005KT 7000 SCT018 27/22 Q1006 NOSIG=
METAR WAHH 021130Z 27005KT 6000 SCT018 26/22 Q1006 NOSIG=
METAR WAHH 021200Z 26004KT 6000 SCT018 26/22 Q1007 NOSIG=
METAR COR WAHH 021030Z 26007KT 8000 SCT018 28/22 Q1006 NOSIG=
